GSAT0101 (GALILEO-PFM)  
1 37846U 11060A   24332.79384600 -.00000074  00000+0  00000+0 0  9997
2 37846  57.1204 357.1084 0002333 307.8284  52.2069  1.70475953 81464
GSAT0102 (GALILEO-FM2)  
1 37847U 11060B   24332.13468553 -.00000077  00000+0  00000+0 0  9999
2 37847  57.1212 357.1265 0004249 301.8516  59.0293  1.70475467 81469
GSAT0103 (GALILEO-FM3)  
1 38857U 12055A   24332.83322264  .00000053  00000+0  00000+0 0  9994
2 38857  55.4850 117.1067 0002368 249.6014 110.3483  1.70473558 75358
GSAT0201 (GALILEO 5)    
1 40128U 14050A   24332.40169931 -.00000090  00000+0  00000+0 0  9990
2 40128  49.4904 296.4907 1615478 157.5946 210.3640  1.85519707 67803
GSAT0202 (GALILEO 6)    
1 40129U 14050B   24333.19836992 -.00000086  00000+0  00000+0 0  9991
2 40129  49.5056 295.5379 1614869 158.4143 209.2719  1.85520410 69986
GSAT0203 (GALILEO 7)    
1 40544U 15017A   24333.15925497 -.00000073  00000+0  00000+0 0  9997
2 40544  56.9151 357.0103 0006078 262.1482  97.8389  1.70476230 59559
GSAT0204 (GALILEO 8)    
1 40545U 15017B   24334.00048929 -.00000070  00000+0  00000+0 0  9996
2 40545  56.9213 357.0035 0005849 252.2200 107.7726  1.70475824 60237
GSAT0205 (GALILEO 9)    
1 40889U 15045A   24333.18239635  .00000004  00000+0  00000+0 0  9998
2 40889  55.1462 237.2414 0005709  32.8858 327.2046  1.70473082 57369
GSAT0206 (GALILEO 10)   
1 40890U 15045B   24332.22981178 -.00000004  00000+0  00000+0 0  9991
2 40890  55.1449 237.2628 0003153  14.4769 345.5812  1.70473151 57373
GSAT0209 (GALILEO 12)   
1 41174U 15079A   24331.22588431  .00000054  00000+0  00000+0 0  9992
2 41174  55.5037 116.8614 0001884 348.1974  11.7796  1.70474574 55097
GSAT0208 (GALILEO 11)   
1 41175U 15079B   24332.61891283  .00000053  00000+0  00000+0 0  9998
2 41175  55.5029 116.8208 0001395   3.5042 356.4726  1.70474372 55530
GSAT0211 (GALILEO 14)   
1 41549U 16030A   24330.39580025 -.00000018  00000+0  00000+0 0  9995
2 41549  55.2955 237.3420 0003802 359.6101   0.4317  1.70473034 52972
GSAT0210 (GALILEO 13)   
1 41550U 16030B   24333.58671748  .00000007  00000+0  00000+0 0  9991
2 41550  55.2930 237.2527 0001477 248.2559 111.7860  1.70473597 53020
GSAT0207 (GALILEO 15)   
1 41859U 16069A   24332.69256333  .00000052  00000+0  00000+0 0  9995
2 41859  55.1702 116.7828 0001767 311.8311  48.1294  1.70474473 49740
GSAT0212 (GALILEO 16)   
1 41860U 16069B   24332.54668277  .00000052  00000+0  00000+0 0  9995
2 41860  55.1689 116.7828 0001711  34.1442 325.8430  1.70474552 49997
GSAT0213 (GALILEO 17)   
1 41861U 16069C   24332.91496320  .00000052  00000+0  00000+0 0  9995
2 41861  55.1697 116.7797 0002026 265.4162  94.5352  1.70474884 49867
GSAT0214 (GALILEO 18)   
1 41862U 16069D   24328.36775788  .00000051  00000+0  00000+0 0  9997
2 41862  55.1663 116.8988 0001002 261.4215  98.5510  1.70474731 49919
GSAT0215 (GALILEO 19)   
1 43055U 17079A   24332.96367047  .00000002  00000+0  00000+0 0  9997
2 43055  55.2710 237.0910 0001527 318.3517  41.6904  1.70473830 43334
GSAT0216 (GALILEO 20)   
1 43056U 17079B   24333.25525052  .00000005  00000+0  00000+0 0  9996
2 43056  55.2714 237.0830 0002884 307.7304  52.2992  1.70473966 43327
GSAT0217 (GALILEO 21)   
1 43057U 17079C   24331.71600201 -.00000008  00000+0  00000+0 0  9990
2 43057  55.2703 237.1237 0003195 320.6964  39.3273  1.70473986 43319
GSAT0218 (GALILEO 22)   
1 43058U 17079D   24332.52265361 -.00000001  00000+0  00000+0 0  9998
2 43058  55.2700 237.0992 0003354 296.9999  63.0169  1.70473953 43327
GSAT0221 (GALILEO 25)   
1 43564U 18060A   24333.59690372 -.00000071  00000+0  00000+0 0  9990
2 43564  57.2955 357.0402 0006196 274.8113  85.1747  1.70476053 39520
GSAT0222 (GALILEO 26)   
1 43565U 18060B   24327.94978855 -.00000091  00000+0  00000+0 0  9990
2 43565  57.2994 357.1948 0005723 251.8543 108.1328  1.70475794 39473
GSAT0219 (GALILEO 23)   
1 43566U 18060C   24332.86412661 -.00000073  00000+0  00000+0 0  9996
2 43566  57.2982 357.0639 0005252 278.3159  81.6811  1.70476094 39534
GSAT0220 (GALILEO 24)   
1 43567U 18060D   24330.73852504 -.00000082  00000+0  00000+0 0  9995
2 43567  57.2979 357.1214 0005436 274.7072  85.2844  1.70476183 39488
GSAT0223 (GALILEO 27)   
1 49809U 21116A   24332.93461484 -.00000073  00000+0  00000+0 0  9993
2 49809  57.2881 356.9556 0004431 251.4617 106.8500  1.70476214 18528
GSAT0224 (GALILEO 28)   
1 49810U 21116B   24331.00081519 -.00000081  00000+0  00000+0 0  9998
2 49810  57.2891 357.0061 0005806 253.9738 110.0286  1.70476300 18526
GSAT0225 (GALILEO 29)   
1 59598U 24079A   24333.05676885  .00000051  00000+0  00000+0 0  9992
2 59598  54.7870 116.9222 0002765 166.8536   9.9963  1.70474940  3664
GSAT0227 (GALILEO 30)   
1 59600U 24079C   24332.95190713  .00000051  00000+0  00000+0 0  9995
2 59600  54.7820 116.9254 0003630 119.1248 240.8862  1.70474806  3712
GSAT0232 (GALILEO 32)   
1 61182U 24167A   24321.21686440 -.00000004  00000+0  00000+0 0  9994
2 61182  55.3884 237.1378 0015743 276.0571  83.7985  1.73178105  1028
GSAT0226 (GALILEO 31)   
1 61183U 24167B   24321.20557931 -.00000004  00000+0  00000+0 0  9996
2 61183  55.3850 237.1721 0033834  97.1093 263.3097  1.71381460  1002
